IRIDIUM 119             
1 42959U 17061E   25189.44697640  .00000065  00000+0  16157-4 0  9993
2 42959  86.4002 168.9117 0002526  83.4450 276.7033 14.34217992405541
IRIDIUM 107             
1 42960U 17061F   25189.46600356  .00000047  00000+0  96427-5 0  9994
2 42960  86.4003 168.9231 0002310  74.8893 285.2558 14.34218016405553
IRIDIUM 132             
1 42961U 17061G   25189.47234574  .00000054  00000+0  12132-4 0  9999
2 42961  86.4002 168.9024 0002248  84.1897 275.9555 14.34218077405551
IRIDIUM 136             
1 42962U 17061H   25189.43429084 -.00000018  00000+0 -13320-4 0  9990
2 42962  86.4006 168.9234 0002350  81.7229 278.4234 14.34217572405567
IRIDIUM 139             
1 42963U 17061J   25189.44062994  .00000200  00000+0  64527-4 0  9991
2 42963  86.4004 168.9768 0002260  80.6097 279.5354 14.34219690405578
IRIDIUM 125             
1 42964U 17061K   25189.49771757  .00000024  00000+0  16298-5 0  9998
2 42964  86.4006 169.0075 0002743  76.1862 283.9639 14.34217835405596
IRIDIUM 135             
1 43070U 17083A   25189.26253684  .00000013  00000+0 -24027-5 0  9998
2 43070  86.3968 105.8124 0002003  89.1877 270.9549 14.34217603394858
IRIDIUM 138             
1 43071U 17083B   25189.49721414  .00000013  00000+0 -24625-5 0  9999
2 43071  86.3957 105.3824 0002650  84.2841 275.8657 14.34217545394875
